STARLINK-2683           
1 48462U 21040AL  26174.95877945  .00035665  00000+0  11549-2 0  9991
2 48462  53.1600  56.6714 0001066  98.4782 261.6340 15.31717873282783
STARLINK-2686           
1 48464U 21040AN  26174.98244310  .00000065  00000+0  13870-4 0  9997
2 48464  53.1621  56.6779 0001296  96.9762 263.1387 15.31695025282787
STARLINK-2681           
1 48465U 21040AP  26175.21063421  .00089596  00000+0  63072-3 0  9991
2 48465  53.1393  40.5934 0001416 219.6041 140.4875 15.73393479283039
STARLINK-2687           
1 48466U 21040AQ  26174.97276886  .00001118  00000+0  47809-4 0  9990
2 48466  53.1605  56.6453 0001423  89.9995 270.1170 15.31698101282799
STARLINK-2659           
1 48467U 21040AR  26174.98673655  .00000003  00000+0  11864-4 0  9991
2 48467  53.1593  56.4611 0000955 117.6939 242.4160 15.31697474282799
STARLINK-2685           
1 48468U 21040AS  26174.94017933  .00001515  00000+0  60581-4 0  9998
2 48468  53.1594  57.0582 0001187  90.3040 269.8098 15.31699785282782
STARLINK-2661           
1 48469U 21040AT  26174.93547819 -.00006138  00000+0 -18622-3 0  9995
2 48469  53.1611  56.8886 0001051  87.9069 272.2053 15.31694001282785
STARLINK-2675           
1 48470U 21040AU  26174.98208143  .00001545  00000+0  61524-4 0  9991
2 48470  53.1601  56.5329 0001138  93.8368 266.2764 15.31700656282785
STARLINK-2684           
1 48471U 21040AV  26174.91218607  .00016952  00000+0  55652-3 0  9993
2 48471  53.1603  56.8663 0001039  98.3981 261.7138 15.31715683282773
STARLINK-2722           
1 48472U 21040AW  26175.01184112  .00019101  00000+0  10937-2 0  9994
2 48472  53.0605  71.2631 0002696  76.1676 283.9615 15.12659842282551
STARLINK-2658           
1 48473U 21040AX  26174.99140339  .00002648  00000+0  97071-4 0  9998
2 48473  53.1601  56.4525 0001237  86.8022 273.3121 15.31696840282789
STARLINK-2697           
1 48474U 21040AY  26174.96352731  .00001608  00000+0  63585-4 0  9995
2 48474  53.1608  57.3343 0000962  88.8351 271.2761 15.31697148282763
STARLINK-2728           
1 48478U 21040BC  26174.94946873  .00001112  00000+0  47600-4 0  9993
2 48478  53.1607  56.7813 0001916  93.0397 267.0824 15.31703541282778
STARLINK-2755           
1 48479U 21040BD  26174.96814462  .00023048  00000+0  75209-3 0  9991
2 48479  53.1587  56.9470 0000973  77.4743 282.6368 15.31703588282777
STARLINK-2706           
1 48481U 21040BF  26174.99239786 -.00000931  00000+0 -18247-4 0  9995
2 48481  53.1599  58.9371 0001222  94.3727 265.7414 15.31707327282750
STARLINK-2525           
1 48482U 21040BG  26174.96449533  .00001036  00000+0  45133-4 0  9995
2 48482  53.1611  59.4848 0001243  80.3204 279.7938 15.31699119282743
STARLINK-2531           
1 48483U 21040BH  26174.97849534 -.00000135  00000+0  74308-5 0  9999
2 48483  53.1591  59.5987 0001253  91.1945 268.9200 15.31710610282741
STARLINK-2500           
1 48485U 21040BK  26174.95048854  .00000011  00000+0  12102-4 0  9990
2 48485  53.1613  59.3720 0000580  73.8765 286.2300 15.31709028282745
STARLINK-2494           
1 48487U 21040BM  26174.98780977  .00001670  00000+0  65574-4 0  9997
2 48487  53.1582  59.5022 0001263 126.3666 233.7452 15.31699481282759
STARLINK-2063           
1 48553U 21041A   26174.78431609  .00000339  00000+0  22692-4 0  9990
2 48553  53.1619 353.2211 0001328  92.1837 267.9316 15.31698281281530
STARLINK-2139           
1 48554U 21041B   26174.77965309  .00003817  00000+0  13470-3 0  9996
2 48554  53.1602 353.1401 0001152  80.0180 280.0952 15.31699947281537
STARLINK-2145           
1 48555U 21041C   26175.24670088  .00011975  00000+0  39657-3 0  9996
2 48555  53.1616  13.2104 0000447 119.5060 240.5986 15.31737200281272
STARLINK-2151           
1 48556U 21041D   26175.24051463  .00000858  00000+0  39400-4 0  9992
2 48556  53.1613   6.7342 0001179  98.4000 261.7135 15.31703189281374
STARLINK-2155           
1 48557U 21041E   26175.20845076 -.00000141  00000+0  72278-5 0  9997
2 48557  53.1603 351.2984 0001099  85.5965 274.5162 15.31692913281590
STARLINK-2166           
1 48558U 21041F   26175.20378766  .00000758  00000+0  36196-4 0  9996
2 48558  53.1610 351.3063 0001185 102.0150 258.0985 15.31695888280734
STARLINK-2187           
1 48562U 21041K   26175.25002315  .01188592  00000+0  13325-1 0  9990
2 48562  53.1550 341.8895 0001576  93.4237 248.3294 15.59717202  5805
STARLINK-2188           
1 48563U 21041L   26175.18979076  .00000743  00000+0  35714-4 0  9999
2 48563  53.1620 351.2545 0001176  97.9864 262.1271 15.31702780281598
STARLINK-2190           
1 48564U 21041M   26174.78896644 -.00000358  00000+0  24618-6 0  9990
2 48564  53.1613 353.1007 0001538 103.2574 256.8599 15.31702015281534
STARLINK-2214           
1 48566U 21041P   26175.24205161  .00001742  00000+0  67890-4 0  9996
2 48566  53.1611  13.1937 0001126  99.9846 260.1283 15.31702855281276
STARLINK-2217           
1 48568U 21041R   26175.19915958  .00001153  00000+0  48894-4 0  9993
2 48568  53.1594 351.6277 0000861  80.5659 279.5440 15.31708134281587
