OBJECT_NAME,OBJECT_ID,EPOCH,MEAN_MOTION,ECCENTRICITY,INCLINATION,RA_OF_ASC_NODE,ARG_OF_PERICENTER,MEAN_ANOMALY,EPHEMERIS_TYPE,CLASSIFICATION_TYPE,NORAD_CAT_ID,ELEMENT_SET_NO,REV_AT_EPOCH,BSTAR,MEAN_MOTION_DOT,MEAN_MOTION_DDOT
STARLINK-2683,2021-040AL,2026-06-23T23:00:38.544480,15.31717873,.00010666,53.1600,56.6714,98.4782,261.6340,0,U,48462,999,28278,.11549214E-2,.35665E-3,0
STARLINK-2686,2021-040AN,2026-06-23T23:34:43.083840,15.31695025,.0001296,53.1621,56.6779,96.9762,263.1387,0,U,48464,999,28278,.13869842E-4,.65E-6,0
STARLINK-2681,2021-040AP,2026-06-24T05:03:18.795744,15.73393479,.00014164,53.1393,40.5934,219.6041,140.4875,0,U,48465,999,28303,.63071732E-3,.89596E-3,0
STARLINK-2687,2021-040AQ,2026-06-23T23:20:47.229504,15.31698101,.00014231,53.1605,56.6453,89.9995,270.1170,0,U,48466,999,28279,.47808778E-4,.1118E-4,0
STARLINK-2659,2021-040AR,2026-06-23T23:40:54.037920,15.31697474,.00009552,53.1593,56.4611,117.6939,242.4160,0,U,48467,999,28279,.11864068E-4,.3E-7,0
STARLINK-2685,2021-040AS,2026-06-23T22:33:51.494112,15.31699785,.00011872,53.1594,57.0582,90.3040,269.8098,0,U,48468,999,28278,.60580809E-4,.1515E-4,0
STARLINK-2661,2021-040AT,2026-06-23T22:27:05.315616,15.31694001,.00010512,53.1611,56.8886,87.9069,272.2053,0,U,48469,999,28278,-.18622121E-3,-.6138E-4,0
STARLINK-2675,2021-040AU,2026-06-23T23:34:11.835552,15.31700656,.00011389,53.1601,56.5329,93.8368,266.2764,0,U,48470,999,28278,.61523849E-4,.1545E-4,0
STARLINK-2684,2021-040AV,2026-06-23T21:53:32.876448,15.31715683,.00010398,53.1603,56.8663,98.3981,261.7138,0,U,48471,999,28277,.55651601E-3,.16952E-3,0
STARLINK-2722,2021-040AW,2026-06-24T00:17:03.072768,15.12659842,.00026969,53.0605,71.2631,76.1676,283.9615,0,U,48472,999,28255,.10936896E-2,.19101E-3,0
STARLINK-2658,2021-040AX,2026-06-23T23:47:37.252896,15.31696840,.00012375,53.1601,56.4525,86.8022,273.3121,0,U,48473,999,28278,.97071144E-4,.2648E-4,0
STARLINK-2697,2021-040AY,2026-06-23T23:07:28.759584,15.31697148,.00009627,53.1608,57.3343,88.8351,271.2761,0,U,48474,999,28276,.63585436E-4,.1608E-4,0
STARLINK-2728,2021-040BC,2026-06-23T22:47:14.098272,15.31703541,.0001916,53.1607,56.7813,93.0397,267.0824,0,U,48478,999,28277,.47599994E-4,.1112E-4,0
STARLINK-2755,2021-040BD,2026-06-23T23:14:07.695168,15.31703588,.00009735,53.1587,56.9470,77.4743,282.6368,0,U,48479,999,28277,.75209027E-3,.23048E-3,0
STARLINK-2706,2021-040BF,2026-06-23T23:49:03.175104,15.31707327,.00012223,53.1599,58.9371,94.3727,265.7414,0,U,48481,999,28275,-.18247131E-4,-.931E-5,0
STARLINK-2525,2021-040BG,2026-06-23T23:08:52.396512,15.31699119,.0001243,53.1611,59.4848,80.3204,279.7938,0,U,48482,999,28274,.45132834E-4,.1036E-4,0
STARLINK-2531,2021-040BH,2026-06-23T23:29:01.997376,15.31710610,.00012531,53.1591,59.5987,91.1945,268.9200,0,U,48483,999,28274,.7430796E-5,-.135E-5,0
STARLINK-2500,2021-040BK,2026-06-23T22:48:42.209856,15.31709028,.000058,53.1613,59.3720,73.8765,286.2300,0,U,48485,999,28274,.12101543E-4,.11E-6,0
STARLINK-2494,2021-040BM,2026-06-23T23:42:26.764128,15.31699481,.00012633,53.1582,59.5022,126.3666,233.7452,0,U,48487,999,28275,.65574209E-4,.167E-4,0
STARLINK-2063,2021-041A,2026-06-23T18:49:24.910176,15.31698281,.0001328,53.1619,353.2211,92.1837,267.9316,0,U,48553,999,28153,.22692064E-4,.339E-5,0
STARLINK-2139,2021-041B,2026-06-23T18:42:42.026976,15.31699947,.00011523,53.1602,353.1401,80.0180,280.0952,0,U,48554,999,28153,.13469588E-3,.3817E-4,0
STARLINK-2145,2021-041C,2026-06-24T05:55:14.956032,15.31737200,.00004475,53.1616,13.2104,119.5060,240.5986,0,U,48555,999,28127,.39657271E-3,.11975E-3,0
STARLINK-2151,2021-041D,2026-06-24T05:46:20.464032,15.31703189,.00011791,53.1613,6.7342,98.4000,261.7135,0,U,48556,999,28137,.39400176E-4,.858E-5,0
STARLINK-2155,2021-041E,2026-06-24T05:00:10.145664,15.31692913,.00010993,53.1603,351.2984,85.5965,274.5162,0,U,48557,999,28159,.7227787E-5,-.141E-5,0
STARLINK-2166,2021-041F,2026-06-24T04:53:27.253824,15.31695888,.00011858,53.1610,351.3063,102.0150,258.0985,0,U,48558,999,28073,.3619577E-4,.758E-5,0
STARLINK-2187,2021-041K,2026-06-24T06:00:02.000160,15.59717202,.00015769,53.1550,341.8895,93.4237,248.3294,0,U,48562,999,580,.13325495E-1,.1188592E-1,0
STARLINK-2188,2021-041L,2026-06-24T04:33:17.921664,15.31702780,.00011768,53.1620,351.2545,97.9864,262.1271,0,U,48563,999,28159,.35713728E-4,.743E-5,0
STARLINK-2190,2021-041M,2026-06-23T18:56:06.700416,15.31702015,.00015388,53.1613,353.1007,103.2574,256.8599,0,U,48564,999,28153,.246183E-6,-.358E-5,0
STARLINK-2214,2021-041P,2026-06-24T05:48:33.259104,15.31702855,.00011269,53.1611,13.1937,99.9846,260.1283,0,U,48566,999,28127,.67889655E-4,.1742E-4,0
STARLINK-2217,2021-041R,2026-06-24T04:46:47.387712,15.31708134,.00008619,53.1594,351.6277,80.5659,279.5440,0,U,48568,999,28158,.48893558E-4,.1153E-4,0
